[{"OBJECT_NAME":"STARLINK-2470","OBJECT_ID":"2021-036BL","EPOCH":"2026-03-10T00:00:02.999808","MEAN_MOTION":15.27176336,"ECCENTRICITY":0.00016103,"INCLINATION":53.1455,"RA_OF_ASC_NODE":99.4339,"ARG_OF_PERICENTER":99.1433,"MEAN_ANOMALY":347.7557,"EPHEMERIS_TYPE":0,"CLASSIFICATION_TYPE":"U","NORAD_CAT_ID":48334,"ELEMENT_SET_NO":999,"REV_AT_EPOCH":579,"BSTAR":0.062418193,"MEAN_MOTION_DOT":0.01853094,"MEAN_MOTION_DDOT":0},{"OBJECT_NAME":"CSSWE","OBJECT_ID":"2012-048D","EPOCH":"2026-03-09T08:13:05.901888","MEAN_MOTION":15.39093253,"ECCENTRICITY":0.00676686,"INCLINATION":64.6623,"RA_OF_ASC_NODE":70.3925,"ARG_OF_PERICENTER":202.9126,"MEAN_ANOMALY":156.8988,"EPHEMERIS_TYPE":0,"CLASSIFICATION_TYPE":"U","NORAD_CAT_ID":38761,"ELEMENT_SET_NO":999,"REV_AT_EPOCH":10100,"BSTAR":0.00070329542,"MEAN_MOTION_DOT":0.0002953,"MEAN_MOTION_DDOT":0}]
